STARLINK-35460          
1 66328U 25253K   25328.83337963 -.01970444  00000+0 -26229-1 0  9996
2 66328  42.9997  89.5032 0001618 278.4681  40.1667 15.60711939  4141
STARLINK-35505          
1 66329U 25253L   25328.83337963 -.01974718  00000+0 -26291-1 0  9994
2 66329  43.0001  89.5540 0001628 277.2651  22.1994 15.60714151  4051
STARLINK-35512          
1 66330U 25253M   25328.83337963 -.01959420  00000+0 -26069-1 0  9992
2 66330  42.9999  89.5287 0001673 282.8794  26.1708 15.60704022  4058
STARLINK-35257          
1 66331U 25253N   25328.83337963 -.01969464  00000+0 -26215-1 0  9995
2 66331  42.9999  89.4895 0001759 280.7059  43.6822 15.60709645  3785
STARLINK-35322          
1 66332U 25253P   25328.83337963 -.01965425  00000+0 -26157-1 0  9994
2 66332  43.0000  89.5133 0001619 280.4185  34.3845 15.60707343  4055
STARLINK-35400          
1 66333U 25253Q   25328.83337963 -.01955232  00000+0 -26004-1 0  9991
2 66333  42.9998  89.4934 0001602 279.7785  42.6843 15.60706541  4056
STARLINK-35407          
1 66334U 25253R   25328.83337963 -.01911603  00000+0 -25373-1 0  9994
2 66334  43.0000  89.5096 0001534 270.4353  46.2899 15.60680371  4059
STARLINK-35417          
1 66335U 25253S   25328.83337963 -.01962852  00000+0 -26120-1 0  9998
2 66335  42.9997  89.4708 0001539 278.2386  53.8177 15.60706870  4055
STARLINK-35404          
1 66336U 25253T   25328.83337963 -.01966431  00000+0 -26170-1 0  9991
2 66336  42.9998  89.4848 0001669 280.0271  46.2767 15.60709198  4147
STARLINK-34783          
1 66337U 25253U   25328.83337963 -.01962385  00000+0 -26112-1 0  9992
2 66337  42.9999  89.4661 0001644 279.2940  54.6793 15.60706413  4091
STARLINK-35477          
1 66338U 25253V   25328.83337963 -.01965879  00000+0 -26162-1 0  9999
2 66338  42.9997  89.4762 0001627 280.4876  49.6500 15.60709440  4144
STARLINK-35443          
1 66339U 25253W   25328.83337963 -.01957409  00000+0 -26039-1 0  9993
2 66339  42.9997  89.4507 0001660 279.0119  60.7115 15.60704178  4096
