CCSDS_OMM_VERS = 2.0
CREATION_DATE  = 
ORIGINATOR     = 

OBJECT_NAME    = STARLINK-35460
OBJECT_ID      = 2025-253K
CENTER_NAME    = EARTH
REF_FRAME      = TEME
TIME_SYSTEM    = UTC
MEAN_ELEMENT_THEORY = SGP/SGP4

EPOCH          = 2025-11-24T20:00:04.000032
MEAN_MOTION    = 15.60711939
ECCENTRICITY   = .0001618
INCLINATION    = 42.9997
RA_OF_ASC_NODE = 89.5032
ARG_OF_PERICENTER = 278.4681
MEAN_ANOMALY   = 40.1667

EPHEMERIS_TYPE = 0
CLASSIFICATION_TYPE = U
NORAD_CAT_ID   = 66328
ELEMENT_SET_NO = 999
REV_AT_EPOCH   = 414
BSTAR          = -.26229E-1
MEAN_MOTION_DOT = -.1970444E-1
MEAN_MOTION_DDOT = 0

CCSDS_OMM_VERS = 2.0
CREATION_DATE  = 
ORIGINATOR     = 

OBJECT_NAME    = STARLINK-35505
OBJECT_ID      = 2025-253L
CENTER_NAME    = EARTH
REF_FRAME      = TEME
TIME_SYSTEM    = UTC
MEAN_ELEMENT_THEORY = SGP/SGP4

EPOCH          = 2025-11-24T20:00:04.000032
MEAN_MOTION    = 15.60714151
ECCENTRICITY   = .0001628
INCLINATION    = 43.0001
RA_OF_ASC_NODE = 89.5540
ARG_OF_PERICENTER = 277.2651
MEAN_ANOMALY   = 22.1994

EPHEMERIS_TYPE = 0
CLASSIFICATION_TYPE = U
NORAD_CAT_ID   = 66329
ELEMENT_SET_NO = 999
REV_AT_EPOCH   = 405
BSTAR          = -.26291E-1
MEAN_MOTION_DOT = -.1974718E-1
MEAN_MOTION_DDOT = 0

CCSDS_OMM_VERS = 2.0
CREATION_DATE  = 
ORIGINATOR     = 

OBJECT_NAME    = STARLINK-35512
OBJECT_ID      = 2025-253M
CENTER_NAME    = EARTH
REF_FRAME      = TEME
TIME_SYSTEM    = UTC
MEAN_ELEMENT_THEORY = SGP/SGP4

EPOCH          = 2025-11-24T20:00:04.000032
MEAN_MOTION    = 15.60704022
ECCENTRICITY   = .0001673
INCLINATION    = 42.9999
RA_OF_ASC_NODE = 89.5287
ARG_OF_PERICENTER = 282.8794
MEAN_ANOMALY   = 26.1708

EPHEMERIS_TYPE = 0
CLASSIFICATION_TYPE = U
NORAD_CAT_ID   = 66330
ELEMENT_SET_NO = 999
REV_AT_EPOCH   = 405
BSTAR          = -.26069E-1
MEAN_MOTION_DOT = -.195942E-1
MEAN_MOTION_DDOT = 0

CCSDS_OMM_VERS = 2.0
CREATION_DATE  = 
ORIGINATOR     = 

OBJECT_NAME    = STARLINK-35257
OBJECT_ID      = 2025-253N
CENTER_NAME    = EARTH
REF_FRAME      = TEME
TIME_SYSTEM    = UTC
MEAN_ELEMENT_THEORY = SGP/SGP4

EPOCH          = 2025-11-24T20:00:04.000032
MEAN_MOTION    = 15.60709645
ECCENTRICITY   = .0001759
INCLINATION    = 42.9999
RA_OF_ASC_NODE = 89.4895
ARG_OF_PERICENTER = 280.7059
MEAN_ANOMALY   = 43.6822

EPHEMERIS_TYPE = 0
CLASSIFICATION_TYPE = U
NORAD_CAT_ID   = 66331
ELEMENT_SET_NO = 999
REV_AT_EPOCH   = 378
BSTAR          = -.26215E-1
MEAN_MOTION_DOT = -.1969464E-1
MEAN_MOTION_DDOT = 0

CCSDS_OMM_VERS = 2.0
CREATION_DATE  = 
ORIGINATOR     = 

OBJECT_NAME    = STARLINK-35322
OBJECT_ID      = 2025-253P
CENTER_NAME    = EARTH
REF_FRAME      = TEME
TIME_SYSTEM    = UTC
MEAN_ELEMENT_THEORY = SGP/SGP4

EPOCH          = 2025-11-24T20:00:04.000032
MEAN_MOTION    = 15.60707343
ECCENTRICITY   = .0001619
INCLINATION    = 43.0000
RA_OF_ASC_NODE = 89.5133
ARG_OF_PERICENTER = 280.4185
MEAN_ANOMALY   = 34.3845

EPHEMERIS_TYPE = 0
CLASSIFICATION_TYPE = U
NORAD_CAT_ID   = 66332
ELEMENT_SET_NO = 999
REV_AT_EPOCH   = 405
BSTAR          = -.26157E-1
MEAN_MOTION_DOT = -.1965425E-1
MEAN_MOTION_DDOT = 0

CCSDS_OMM_VERS = 2.0
CREATION_DATE  = 
ORIGINATOR     = 

OBJECT_NAME    = STARLINK-35400
OBJECT_ID      = 2025-253Q
CENTER_NAME    = EARTH
REF_FRAME      = TEME
TIME_SYSTEM    = UTC
MEAN_ELEMENT_THEORY = SGP/SGP4

EPOCH          = 2025-11-24T20:00:04.000032
MEAN_MOTION    = 15.60706541
ECCENTRICITY   = .0001602
INCLINATION    = 42.9998
RA_OF_ASC_NODE = 89.4934
ARG_OF_PERICENTER = 279.7785
MEAN_ANOMALY   = 42.6843

EPHEMERIS_TYPE = 0
CLASSIFICATION_TYPE = U
NORAD_CAT_ID   = 66333
ELEMENT_SET_NO = 999
REV_AT_EPOCH   = 405
BSTAR          = -.26004E-1
MEAN_MOTION_DOT = -.1955232E-1
MEAN_MOTION_DDOT = 0

CCSDS_OMM_VERS = 2.0
CREATION_DATE  = 
ORIGINATOR     = 

OBJECT_NAME    = STARLINK-35407
OBJECT_ID      = 2025-253R
CENTER_NAME    = EARTH
REF_FRAME      = TEME
TIME_SYSTEM    = UTC
MEAN_ELEMENT_THEORY = SGP/SGP4

EPOCH          = 2025-11-24T20:00:04.000032
MEAN_MOTION    = 15.60680371
ECCENTRICITY   = .0001534
INCLINATION    = 43.0000
RA_OF_ASC_NODE = 89.5096
ARG_OF_PERICENTER = 270.4353
MEAN_ANOMALY   = 46.2899

EPHEMERIS_TYPE = 0
CLASSIFICATION_TYPE = U
NORAD_CAT_ID   = 66334
ELEMENT_SET_NO = 999
REV_AT_EPOCH   = 405
BSTAR          = -.25373E-1
MEAN_MOTION_DOT = -.1911603E-1
MEAN_MOTION_DDOT = 0

CCSDS_OMM_VERS = 2.0
CREATION_DATE  = 
ORIGINATOR     = 

OBJECT_NAME    = STARLINK-35417
OBJECT_ID      = 2025-253S
CENTER_NAME    = EARTH
REF_FRAME      = TEME
TIME_SYSTEM    = UTC
MEAN_ELEMENT_THEORY = SGP/SGP4

EPOCH          = 2025-11-24T20:00:04.000032
MEAN_MOTION    = 15.60706870
ECCENTRICITY   = .0001539
INCLINATION    = 42.9997
RA_OF_ASC_NODE = 89.4708
ARG_OF_PERICENTER = 278.2386
MEAN_ANOMALY   = 53.8177

EPHEMERIS_TYPE = 0
CLASSIFICATION_TYPE = U
NORAD_CAT_ID   = 66335
ELEMENT_SET_NO = 999
REV_AT_EPOCH   = 405
BSTAR          = -.2612E-1
MEAN_MOTION_DOT = -.1962852E-1
MEAN_MOTION_DDOT = 0

CCSDS_OMM_VERS = 2.0
CREATION_DATE  = 
ORIGINATOR     = 

OBJECT_NAME    = STARLINK-35404
OBJECT_ID      = 2025-253T
CENTER_NAME    = EARTH
REF_FRAME      = TEME
TIME_SYSTEM    = UTC
MEAN_ELEMENT_THEORY = SGP/SGP4

EPOCH          = 2025-11-24T20:00:04.000032
MEAN_MOTION    = 15.60709198
ECCENTRICITY   = .0001669
INCLINATION    = 42.9998
RA_OF_ASC_NODE = 89.4848
ARG_OF_PERICENTER = 280.0271
MEAN_ANOMALY   = 46.2767

EPHEMERIS_TYPE = 0
CLASSIFICATION_TYPE = U
NORAD_CAT_ID   = 66336
ELEMENT_SET_NO = 999
REV_AT_EPOCH   = 414
BSTAR          = -.2617E-1
MEAN_MOTION_DOT = -.1966431E-1
MEAN_MOTION_DDOT = 0

CCSDS_OMM_VERS = 2.0
CREATION_DATE  = 
ORIGINATOR     = 

OBJECT_NAME    = STARLINK-34783
OBJECT_ID      = 2025-253U
CENTER_NAME    = EARTH
REF_FRAME      = TEME
TIME_SYSTEM    = UTC
MEAN_ELEMENT_THEORY = SGP/SGP4

EPOCH          = 2025-11-24T20:00:04.000032
MEAN_MOTION    = 15.60706413
ECCENTRICITY   = .0001644
INCLINATION    = 42.9999
RA_OF_ASC_NODE = 89.4661
ARG_OF_PERICENTER = 279.2940
MEAN_ANOMALY   = 54.6793

EPHEMERIS_TYPE = 0
CLASSIFICATION_TYPE = U
NORAD_CAT_ID   = 66337
ELEMENT_SET_NO = 999
REV_AT_EPOCH   = 409
BSTAR          = -.26112E-1
MEAN_MOTION_DOT = -.1962385E-1
MEAN_MOTION_DDOT = 0

CCSDS_OMM_VERS = 2.0
CREATION_DATE  = 
ORIGINATOR     = 

OBJECT_NAME    = STARLINK-35477
OBJECT_ID      = 2025-253V
CENTER_NAME    = EARTH
REF_FRAME      = TEME
TIME_SYSTEM    = UTC
MEAN_ELEMENT_THEORY = SGP/SGP4

EPOCH          = 2025-11-24T20:00:04.000032
MEAN_MOTION    = 15.60709440
ECCENTRICITY   = .0001627
INCLINATION    = 42.9997
RA_OF_ASC_NODE = 89.4762
ARG_OF_PERICENTER = 280.4876
MEAN_ANOMALY   = 49.6500

EPHEMERIS_TYPE = 0
CLASSIFICATION_TYPE = U
NORAD_CAT_ID   = 66338
ELEMENT_SET_NO = 999
REV_AT_EPOCH   = 414
BSTAR          = -.26162E-1
MEAN_MOTION_DOT = -.1965879E-1
MEAN_MOTION_DDOT = 0

CCSDS_OMM_VERS = 2.0
CREATION_DATE  = 
ORIGINATOR     = 

OBJECT_NAME    = STARLINK-35443
OBJECT_ID      = 2025-253W
CENTER_NAME    = EARTH
REF_FRAME      = TEME
TIME_SYSTEM    = UTC
MEAN_ELEMENT_THEORY = SGP/SGP4

EPOCH          = 2025-11-24T20:00:04.000032
MEAN_MOTION    = 15.60704178
ECCENTRICITY   = .000166
INCLINATION    = 42.9997
RA_OF_ASC_NODE = 89.4507
ARG_OF_PERICENTER = 279.0119
MEAN_ANOMALY   = 60.7115

EPHEMERIS_TYPE = 0
CLASSIFICATION_TYPE = U
NORAD_CAT_ID   = 66339
ELEMENT_SET_NO = 999
REV_AT_EPOCH   = 409
BSTAR          = -.26039E-1
MEAN_MOTION_DOT = -.1957409E-1
MEAN_MOTION_DDOT = 0

